KUIPER-00061            
1 64521U 25134X   25208.43062658  .00028097  00000+0  80840-3 0  9992
2 64521  51.8733 167.1902 0005093 230.1503 129.9036 15.35555147  6450
KUIPER-00062            
1 64522U 25134Y   25208.58335648 -.00643661  00000+0 -20185-1 0  9997
2 64522  51.8758 166.3882 0004138 218.9071 302.1164 15.34770820  6025
KUIPER-00063            
1 64523U 25134Z   25208.60725596  .00028129  00000+0  79155-3 0  9993
2 64523  51.8749 166.1301 0002908 184.2629 175.8333 15.36256674  6499
KUIPER-00064            
1 64524U 25134AA  25208.59431733  .00015228  00000+0  42319-3 0  9997
2 64524  51.8774 166.0465 0001431 130.8754 229.2357 15.37059350  6497
KUIPER-00065            
1 64525U 25134AB  25208.57788642  .00024754  00000+0  73811-3 0  9995
2 64525  51.8703 166.6630 0007727 232.8770 127.1510 15.34486521  6471
KUIPER-00066            
1 64526U 25134AC  25208.53484592  .00022509  00000+0  62431-3 0  9991
2 64526  51.8762 166.3988 0001450 154.1847 205.9212 15.36837541  6487
KUIPER-00069            
1 64816U 25151A   25208.59026403  .00022574  00000+0  64990-3 0  9995
2 64816  51.8780 233.0040 0005499 174.5766 185.5281 15.35660022  2913
KUIPER-00070            
1 64817U 25151B   25208.53021537  .00017682  00000+0  52181-3 0  9996
2 64817  51.8777 233.3488 0005323 196.6643 163.4169 15.35047452  2909
