<?xml version="1.0" encoding="UTF-8"?>
<ndm xmlns:xsi="http://www.w3.org/2001/XMLSchema-instance" xsi:noNamespaceSchemaLocation="https://sanaregistry.org/r/ndmxml_unqualified/ndmxml-2.0.0-master-2.0.xsd">
<omm id="CCSDS_OMM_VERS" version="2.0">
<header><CREATION_DATE/><ORIGINATOR/></header><body><segment><metadata><OBJECT_NAME>KUIPER-00061</OBJECT_NAME><OBJECT_ID>2025-134X</OBJECT_ID><CENTER_NAME>EARTH</CENTER_NAME><REF_FRAME>TEME</REF_FRAME><TIME_SYSTEM>UTC</TIME_SYSTEM><MEAN_ELEMENT_THEORY>SGP4</MEAN_ELEMENT_THEORY></metadata><data><meanElements><EPOCH>2025-07-27T10:20:06.136512</EPOCH><MEAN_MOTION>15.35555147</MEAN_MOTION><ECCENTRICITY>.0005093</ECCENTRICITY><INCLINATION>51.8733</INCLINATION><RA_OF_ASC_NODE>167.1902</RA_OF_ASC_NODE><ARG_OF_PERICENTER>230.1503</ARG_OF_PERICENTER><MEAN_ANOMALY>129.9036</MEAN_ANOMALY></meanElements><tleParameters><EPHEMERIS_TYPE>0</EPHEMERIS_TYPE><CLASSIFICATION_TYPE>U</CLASSIFICATION_TYPE><NORAD_CAT_ID>64521</NORAD_CAT_ID><ELEMENT_SET_NO>999</ELEMENT_SET_NO><REV_AT_EPOCH>645</REV_AT_EPOCH><BSTAR>.8084E-3</BSTAR><MEAN_MOTION_DOT>.28097E-3</MEAN_MOTION_DOT><MEAN_MOTION_DDOT>0</MEAN_MOTION_DDOT></tleParameters></data></segment></body></omm>
<omm id="CCSDS_OMM_VERS" version="2.0">
<header><CREATION_DATE/><ORIGINATOR/></header><body><segment><metadata><OBJECT_NAME>KUIPER-00062</OBJECT_NAME><OBJECT_ID>2025-134Y</OBJECT_ID><CENTER_NAME>EARTH</CENTER_NAME><REF_FRAME>TEME</REF_FRAME><TIME_SYSTEM>UTC</TIME_SYSTEM><MEAN_ELEMENT_THEORY>SGP4</MEAN_ELEMENT_THEORY></metadata><data><meanElements><EPOCH>2025-07-27T14:00:01.999872</EPOCH><MEAN_MOTION>15.34770820</MEAN_MOTION><ECCENTRICITY>.0004138</ECCENTRICITY><INCLINATION>51.8758</INCLINATION><RA_OF_ASC_NODE>166.3882</RA_OF_ASC_NODE><ARG_OF_PERICENTER>218.9071</ARG_OF_PERICENTER><MEAN_ANOMALY>302.1164</MEAN_ANOMALY></meanElements><tleParameters><EPHEMERIS_TYPE>0</EPHEMERIS_TYPE><CLASSIFICATION_TYPE>U</CLASSIFICATION_TYPE><NORAD_CAT_ID>64522</NORAD_CAT_ID><ELEMENT_SET_NO>999</ELEMENT_SET_NO><REV_AT_EPOCH>602</REV_AT_EPOCH><BSTAR>-.20185E-1</BSTAR><MEAN_MOTION_DOT>-.643661E-2</MEAN_MOTION_DOT><MEAN_MOTION_DDOT>0</MEAN_MOTION_DDOT></tleParameters></data></segment></body></omm>
<omm id="CCSDS_OMM_VERS" version="2.0">
<header><CREATION_DATE/><ORIGINATOR/></header><body><segment><metadata><OBJECT_NAME>KUIPER-00063</OBJECT_NAME><OBJECT_ID>2025-134Z</OBJECT_ID><CENTER_NAME>EARTH</CENTER_NAME><REF_FRAME>TEME</REF_FRAME><TIME_SYSTEM>UTC</TIME_SYSTEM><MEAN_ELEMENT_THEORY>SGP4</MEAN_ELEMENT_THEORY></metadata><data><meanElements><EPOCH>2025-07-27T14:34:26.914944</EPOCH><MEAN_MOTION>15.36256674</MEAN_MOTION><ECCENTRICITY>.0002908</ECCENTRICITY><INCLINATION>51.8749</INCLINATION><RA_OF_ASC_NODE>166.1301</RA_OF_ASC_NODE><ARG_OF_PERICENTER>184.2629</ARG_OF_PERICENTER><MEAN_ANOMALY>175.8333</MEAN_ANOMALY></meanElements><tleParameters><EPHEMERIS_TYPE>0</EPHEMERIS_TYPE><CLASSIFICATION_TYPE>U</CLASSIFICATION_TYPE><NORAD_CAT_ID>64523</NORAD_CAT_ID><ELEMENT_SET_NO>999</ELEMENT_SET_NO><REV_AT_EPOCH>649</REV_AT_EPOCH><BSTAR>.79155E-3</BSTAR><MEAN_MOTION_DOT>.28129E-3</MEAN_MOTION_DOT><MEAN_MOTION_DDOT>0</MEAN_MOTION_DDOT></tleParameters></data></segment></body></omm>
<omm id="CCSDS_OMM_VERS" version="2.0">
<header><CREATION_DATE/><ORIGINATOR/></header><body><segment><metadata><OBJECT_NAME>KUIPER-00064</OBJECT_NAME><OBJECT_ID>2025-134AA</OBJECT_ID><CENTER_NAME>EARTH</CENTER_NAME><REF_FRAME>TEME</REF_FRAME><TIME_SYSTEM>UTC</TIME_SYSTEM><MEAN_ELEMENT_THEORY>SGP4</MEAN_ELEMENT_THEORY></metadata><data><meanElements><EPOCH>2025-07-27T14:15:49.017312</EPOCH><MEAN_MOTION>15.37059350</MEAN_MOTION><ECCENTRICITY>.0001431</ECCENTRICITY><INCLINATION>51.8774</INCLINATION><RA_OF_ASC_NODE>166.0465</RA_OF_ASC_NODE><ARG_OF_PERICENTER>130.8754</ARG_OF_PERICENTER><MEAN_ANOMALY>229.2357</MEAN_ANOMALY></meanElements><tleParameters><EPHEMERIS_TYPE>0</EPHEMERIS_TYPE><CLASSIFICATION_TYPE>U</CLASSIFICATION_TYPE><NORAD_CAT_ID>64524</NORAD_CAT_ID><ELEMENT_SET_NO>999</ELEMENT_SET_NO><REV_AT_EPOCH>649</REV_AT_EPOCH><BSTAR>.42319E-3</BSTAR><MEAN_MOTION_DOT>.15228E-3</MEAN_MOTION_DOT><MEAN_MOTION_DDOT>0</MEAN_MOTION_DDOT></tleParameters></data></segment></body></omm>
<omm id="CCSDS_OMM_VERS" version="2.0">
<header><CREATION_DATE/><ORIGINATOR/></header><body><segment><metadata><OBJECT_NAME>KUIPER-00065</OBJECT_NAME><OBJECT_ID>2025-134AB</OBJECT_ID><CENTER_NAME>EARTH</CENTER_NAME><REF_FRAME>TEME</REF_FRAME><TIME_SYSTEM>UTC</TIME_SYSTEM><MEAN_ELEMENT_THEORY>SGP4</MEAN_ELEMENT_THEORY></metadata><data><meanElements><EPOCH>2025-07-27T13:52:09.386688</EPOCH><MEAN_MOTION>15.34486521</MEAN_MOTION><ECCENTRICITY>.0007727</ECCENTRICITY><INCLINATION>51.8703</INCLINATION><RA_OF_ASC_NODE>166.6630</RA_OF_ASC_NODE><ARG_OF_PERICENTER>232.8770</ARG_OF_PERICENTER><MEAN_ANOMALY>127.1510</MEAN_ANOMALY></meanElements><tleParameters><EPHEMERIS_TYPE>0</EPHEMERIS_TYPE><CLASSIFICATION_TYPE>U</CLASSIFICATION_TYPE><NORAD_CAT_ID>64525</NORAD_CAT_ID><ELEMENT_SET_NO>999</ELEMENT_SET_NO><REV_AT_EPOCH>647</REV_AT_EPOCH><BSTAR>.73811E-3</BSTAR><MEAN_MOTION_DOT>.24754E-3</MEAN_MOTION_DOT><MEAN_MOTION_DDOT>0</MEAN_MOTION_DDOT></tleParameters></data></segment></body></omm>
<omm id="CCSDS_OMM_VERS" version="2.0">
<header><CREATION_DATE/><ORIGINATOR/></header><body><segment><metadata><OBJECT_NAME>KUIPER-00066</OBJECT_NAME><OBJECT_ID>2025-134AC</OBJECT_ID><CENTER_NAME>EARTH</CENTER_NAME><REF_FRAME>TEME</REF_FRAME><TIME_SYSTEM>UTC</TIME_SYSTEM><MEAN_ELEMENT_THEORY>SGP4</MEAN_ELEMENT_THEORY></metadata><data><meanElements><EPOCH>2025-07-27T12:50:10.687488</EPOCH><MEAN_MOTION>15.36837541</MEAN_MOTION><ECCENTRICITY>.000145</ECCENTRICITY><INCLINATION>51.8762</INCLINATION><RA_OF_ASC_NODE>166.3988</RA_OF_ASC_NODE><ARG_OF_PERICENTER>154.1847</ARG_OF_PERICENTER><MEAN_ANOMALY>205.9212</MEAN_ANOMALY></meanElements><tleParameters><EPHEMERIS_TYPE>0</EPHEMERIS_TYPE><CLASSIFICATION_TYPE>U</CLASSIFICATION_TYPE><NORAD_CAT_ID>64526</NORAD_CAT_ID><ELEMENT_SET_NO>999</ELEMENT_SET_NO><REV_AT_EPOCH>648</REV_AT_EPOCH><BSTAR>.62431E-3</BSTAR><MEAN_MOTION_DOT>.22509E-3</MEAN_MOTION_DOT><MEAN_MOTION_DDOT>0</MEAN_MOTION_DDOT></tleParameters></data></segment></body></omm>
<omm id="CCSDS_OMM_VERS" version="2.0">
<header><CREATION_DATE/><ORIGINATOR/></header><body><segment><metadata><OBJECT_NAME>KUIPER-00069</OBJECT_NAME><OBJECT_ID>2025-151A</OBJECT_ID><CENTER_NAME>EARTH</CENTER_NAME><REF_FRAME>TEME</REF_FRAME><TIME_SYSTEM>UTC</TIME_SYSTEM><MEAN_ELEMENT_THEORY>SGP4</MEAN_ELEMENT_THEORY></metadata><data><meanElements><EPOCH>2025-07-27T14:09:58.812192</EPOCH><MEAN_MOTION>15.35660022</MEAN_MOTION><ECCENTRICITY>.0005499</ECCENTRICITY><INCLINATION>51.8780</INCLINATION><RA_OF_ASC_NODE>233.0040</RA_OF_ASC_NODE><ARG_OF_PERICENTER>174.5766</ARG_OF_PERICENTER><MEAN_ANOMALY>185.5281</MEAN_ANOMALY></meanElements><tleParameters><EPHEMERIS_TYPE>0</EPHEMERIS_TYPE><CLASSIFICATION_TYPE>U</CLASSIFICATION_TYPE><NORAD_CAT_ID>64816</NORAD_CAT_ID><ELEMENT_SET_NO>999</ELEMENT_SET_NO><REV_AT_EPOCH>291</REV_AT_EPOCH><BSTAR>.6499E-3</BSTAR><MEAN_MOTION_DOT>.22574E-3</MEAN_MOTION_DOT><MEAN_MOTION_DDOT>0</MEAN_MOTION_DDOT></tleParameters></data></segment></body></omm>
<omm id="CCSDS_OMM_VERS" version="2.0">
<header><CREATION_DATE/><ORIGINATOR/></header><body><segment><metadata><OBJECT_NAME>KUIPER-00070</OBJECT_NAME><OBJECT_ID>2025-151B</OBJECT_ID><CENTER_NAME>EARTH</CENTER_NAME><REF_FRAME>TEME</REF_FRAME><TIME_SYSTEM>UTC</TIME_SYSTEM><MEAN_ELEMENT_THEORY>SGP4</MEAN_ELEMENT_THEORY></metadata><data><meanElements><EPOCH>2025-07-27T12:43:30.607968</EPOCH><MEAN_MOTION>15.35047452</MEAN_MOTION><ECCENTRICITY>.0005323</ECCENTRICITY><INCLINATION>51.8777</INCLINATION><RA_OF_ASC_NODE>233.3488</RA_OF_ASC_NODE><ARG_OF_PERICENTER>196.6643</ARG_OF_PERICENTER><MEAN_ANOMALY>163.4169</MEAN_ANOMALY></meanElements><tleParameters><EPHEMERIS_TYPE>0</EPHEMERIS_TYPE><CLASSIFICATION_TYPE>U</CLASSIFICATION_TYPE><NORAD_CAT_ID>64817</NORAD_CAT_ID><ELEMENT_SET_NO>999</ELEMENT_SET_NO><REV_AT_EPOCH>290</REV_AT_EPOCH><BSTAR>.52181E-3</BSTAR><MEAN_MOTION_DOT>.17682E-3</MEAN_MOTION_DOT><MEAN_MOTION_DDOT>0</MEAN_MOTION_DDOT></tleParameters></data></segment></body></omm>

</ndm>
